2023-104A               
1 57424U 23104A   26065.78279804  .00015492  00000+0  48200-3 0  9993
2 57424  97.2792 135.5625 0009333 122.1915 238.0234 15.33350758146346
STARLINK-35003          
1 65413U 25192K   26068.71602911  .00014634  00000+0  50553-3 0  9995
2 65413  53.1599 232.5552 0001029  88.3358 271.7761 15.30180121 29389
