[{"OBJECT_NAME":"OBJECT A","OBJECT_ID":"2023-104A","EPOCH":"2026-03-06T18:47:13.750656","MEAN_MOTION":15.33350758,"ECCENTRICITY":0.00093331,"INCLINATION":97.2792,"RA_OF_ASC_NODE":135.5625,"ARG_OF_PERICENTER":122.1915,"MEAN_ANOMALY":238.0234,"EPHEMERIS_TYPE":0,"CLASSIFICATION_TYPE":"U","NORAD_CAT_ID":57424,"ELEMENT_SET_NO":999,"REV_AT_EPOCH":14634,"BSTAR":0.00048200218,"MEAN_MOTION_DOT":0.00015492,"MEAN_MOTION_DDOT":0},{"OBJECT_NAME":"STARLINK-35003","OBJECT_ID":"2025-192K","EPOCH":"2026-03-09T17:11:04.915104","MEAN_MOTION":15.30180121,"ECCENTRICITY":0.0001029,"INCLINATION":53.1599,"RA_OF_ASC_NODE":232.5552,"ARG_OF_PERICENTER":88.3358,"MEAN_ANOMALY":271.7761,"EPHEMERIS_TYPE":0,"CLASSIFICATION_TYPE":"U","NORAD_CAT_ID":65413,"ELEMENT_SET_NO":999,"REV_AT_EPOCH":2938,"BSTAR":0.00050553466,"MEAN_MOTION_DOT":0.00014634,"MEAN_MOTION_DDOT":0}]
